[
    {
        "CCSDS_OMM_VERS": "3.0",
        "COMMENT": "GENERATED VIA SPACE-TRACK.ORG API",
        "CREATION_DATE": "2025-04-14T03:05:54",
        "ORIGINATOR": "18 SPCS",
        "OBJECT_NAME": "COSMOS 2459 (GLONASS)",
        "OBJECT_ID": "2010-007A",
        "CENTER_NAME": "EARTH",
        "REF_FRAME": "TEME",
        "TIME_SYSTEM": "UTC",
        "MEAN_ELEMENT_THEORY": "SGP4",
        "EPOCH": "2025-04-13T21:22:36.979392",
        "MEAN_MOTION": "2.13116915",
        "ECCENTRICITY": "0.00264580",
        "INCLINATION": "65.6761",
        "RA_OF_ASC_NODE": "329.0635",
        "ARG_OF_PERICENTER": "347.2637",
        "MEAN_ANOMALY": "194.5206",
        "EPHEMERIS_TYPE": "0",
        "CLASSIFICATION_TYPE": "U",
        "NORAD_CAT_ID": "36400",
        "ELEMENT_SET_NO": "999",
        "REV_AT_EPOCH": "11767",
        "BSTAR": "0.00000000000000",
        "MEAN_MOTION_DOT": "-0.00000047",
        "MEAN_MOTION_DDOT": "0.0000000000000",
        "SEMIMAJOR_AXIS": "25506.834",
        "PERIOD": "675.685",
        "APOAPSIS": "19196.185",
        "PERIAPSIS": "19061.213",
        "OBJECT_TYPE": "PAYLOAD",
        "RCS_SIZE": "LARGE",
        "COUNTRY_CODE": "CIS",
        "LAUNCH_DATE": "2010-03-01",
        "SITE": "TTMTR",
        "DECAY_DATE": null,
        "FILE": "4701263",
        "GP_ID": "285534879",
        "TLE_LINE0": "0 COSMOS 2459 (GLONASS)",
        "TLE_LINE1": "1 36400U 10007A   25103.89070578 -.00000047  00000-0  00000-0 0  9998",
        "TLE_LINE2": "2 36400  65.6761 329.0635 0026458 347.2637 194.5206  2.13116915117679"
    }
]